[{"OBJECT_NAME":"STARLINK-32905","OBJECT_ID":"2025-027S","EPOCH":"2026-02-18T13:20:24.969984","MEAN_MOTION":15.2760109,"ECCENTRICITY":0.0001824,"INCLINATION":42.9982,"RA_OF_ASC_NODE":237.1348,"ARG_OF_PERICENTER":289.7351,"MEAN_ANOMALY":70.3303,"EPHEMERIS_TYPE":0,"CLASSIFICATION_TYPE":"U","NORAD_CAT_ID":62923,"ELEMENT_SET_NO":999,"REV_AT_EPOCH":5861,"BSTAR":0.00086402,"MEAN_MOTION_DOT":0.00023606,"MEAN_MOTION_DDOT":0},{"OBJECT_NAME":"STARLINK-32871","OBJECT_ID":"2025-027T","EPOCH":"2026-02-18T12:58:12.315648","MEAN_MOTION":15.27599675,"ECCENTRICITY":7.81e-5,"INCLINATION":42.9919,"RA_OF_ASC_NODE":237.0082,"ARG_OF_PERICENTER":143.1877,"MEAN_ANOMALY":216.9028,"EPHEMERIS_TYPE":0,"CLASSIFICATION_TYPE":"U","NORAD_CAT_ID":62924,"ELEMENT_SET_NO":999,"REV_AT_EPOCH":5861,"BSTAR":0.00085794,"MEAN_MOTION_DOT":0.00023436,"MEAN_MOTION_DDOT":0},{"OBJECT_NAME":"STARLINK-32920","OBJECT_ID":"2025-027U","EPOCH":"2026-02-18T12:52:40.353024","MEAN_MOTION":15.27606839,"ECCENTRICITY":0.0003373,"INCLINATION":42.9951,"RA_OF_ASC_NODE":236.9807,"ARG_OF_PERICENTER":293.738,"MEAN_ANOMALY":66.3118,"EPHEMERIS_TYPE":0,"CLASSIFICATION_TYPE":"U","NORAD_CAT_ID":62925,"ELEMENT_SET_NO":999,"REV_AT_EPOCH":5861,"BSTAR":0.00068134,"MEAN_MOTION_DOT":0.00018551,"MEAN_MOTION_DDOT":0},{"OBJECT_NAME":"STARLINK-32922","OBJECT_ID":"2025-027V","EPOCH":"2026-02-18T13:14:51.986976","MEAN_MOTION":15.27597179,"ECCENTRICITY":7.74e-5,"INCLINATION":42.9943,"RA_OF_ASC_NODE":237.0984,"ARG_OF_PERICENTER":219.9935,"MEAN_ANOMALY":140.086,"EPHEMERIS_TYPE":0,"CLASSIFICATION_TYPE":"U","NORAD_CAT_ID":62926,"ELEMENT_SET_NO":999,"REV_AT_EPOCH":5861,"BSTAR":0.0010183,"MEAN_MOTION_DOT":0.0002788,"MEAN_MOTION_DDOT":0},{"OBJECT_NAME":"STARLINK-32891","OBJECT_ID":"2025-027W","EPOCH":"2026-02-18T13:24:05.529312","MEAN_MOTION":15.27622546,"ECCENTRICITY":9.1e-5,"INCLINATION":42.9985,"RA_OF_ASC_NODE":237.1511,"ARG_OF_PERICENTER":235.5632,"MEAN_ANOMALY":124.5134,"EPHEMERIS_TYPE":0,"CLASSIFICATION_TYPE":"U","NORAD_CAT_ID":62927,"ELEMENT_SET_NO":999,"REV_AT_EPOCH":5873,"BSTAR":0.00070815,"MEAN_MOTION_DOT":0.00019301,"MEAN_MOTION_DDOT":0},{"OBJECT_NAME":"STARLINK-32728","OBJECT_ID":"2025-029A","EPOCH":"2026-02-17T23:37:01.758432","MEAN_MOTION":15.30230108,"ECCENTRICITY":0.0001161,"INCLINATION":53.159,"RA_OF_ASC_NODE":321.6468,"ARG_OF_PERICENTER":100.0875,"MEAN_ANOMALY":260.0256,"EPHEMERIS_TYPE":0,"CLASSIFICATION_TYPE":"U","NORAD_CAT_ID":62948,"ELEMENT_SET_NO":999,"REV_AT_EPOCH":5837,"BSTAR":0.0011777,"MEAN_MOTION_DOT":0.00034715,"MEAN_MOTION_DDOT":0},{"OBJECT_NAME":"STARLINK-32857","OBJECT_ID":"2025-029B","EPOCH":"2026-02-18T03:56:23.737632","MEAN_MOTION":15.30200986,"ECCENTRICITY":0.00011092,"INCLINATION":53.1602,"RA_OF_ASC_NODE":320.6428,"ARG_OF_PERICENTER":74.6153,"MEAN_ANOMALY":285.4971,"EPHEMERIS_TYPE":0,"CLASSIFICATION_TYPE":"U","NORAD_CAT_ID":62949,"ELEMENT_SET_NO":999,"REV_AT_EPOCH":5840,"BSTAR":0.001228325,"MEAN_MOTION_DOT":0.00036199,"MEAN_MOTION_DDOT":0},{"OBJECT_NAME":"STARLINK-32850","OBJECT_ID":"2025-029C","EPOCH":"2026-02-18T03:16:17.467392","MEAN_MOTION":15.30186821,"ECCENTRICITY":0.00011879,"INCLINATION":53.1599,"RA_OF_ASC_NODE":323.3011,"ARG_OF_PERICENTER":82.9307,"MEAN_ANOMALY":277.1828,"EPHEMERIS_TYPE":0,"CLASSIFICATION_TYPE":"U","NORAD_CAT_ID":62950,"ELEMENT_SET_NO":999,"REV_AT_EPOCH":5833,"BSTAR":0.00072353173,"MEAN_MOTION_DOT":0.00021122,"MEAN_MOTION_DDOT":0},{"OBJECT_NAME":"STARLINK-32875","OBJECT_ID":"2025-029D","EPOCH":"2026-02-18T04:34:22.941120","MEAN_MOTION":15.30204036,"ECCENTRICITY":0.0001086,"INCLINATION":53.159,"RA_OF_ASC_NODE":320.8018,"ARG_OF_PERICENTER":91.6282,"MEAN_ANOMALY":268.4843,"EPHEMERIS_TYPE":0,"CLASSIFICATION_TYPE":"U","NORAD_CAT_ID":62951,"ELEMENT_SET_NO":999,"REV_AT_EPOCH":5837,"BSTAR":0.00093086,"MEAN_MOTION_DOT":0.00027315,"MEAN_MOTION_DDOT":0},{"OBJECT_NAME":"STARLINK-32865","OBJECT_ID":"2025-029E","EPOCH":"2026-02-18T03:07:09.101280","MEAN_MOTION":15.30233645,"ECCENTRICITY":0.00013183,"INCLINATION":53.1592,"RA_OF_ASC_NODE":323.2622,"ARG_OF_PERICENTER":87.0018,"MEAN_ANOMALY":273.1134,"EPHEMERIS_TYPE":0,"CLASSIFICATION_TYPE":"U","NORAD_CAT_ID":62952,"ELEMENT_SET_NO":999,"REV_AT_EPOCH":5833,"BSTAR":0.00062811763,"MEAN_MOTION_DOT":0.00018309,"MEAN_MOTION_DDOT":0},{"OBJECT_NAME":"STARLINK-32884","OBJECT_ID":"2025-029F","EPOCH":"2026-02-18T04:29:49.238880","MEAN_MOTION":15.30220159,"ECCENTRICITY":8.48e-5,"INCLINATION":53.1583,"RA_OF_ASC_NODE":320.7836,"ARG_OF_PERICENTER":89.3593,"MEAN_ANOMALY":270.7505,"EPHEMERIS_TYPE":0,"CLASSIFICATION_TYPE":"U","NORAD_CAT_ID":62953,"ELEMENT_SET_NO":999,"REV_AT_EPOCH":5837,"BSTAR":0.00082997,"MEAN_MOTION_DOT":0.00024318,"MEAN_MOTION_DDOT":0},{"OBJECT_NAME":"STARLINK-32874","OBJECT_ID":"2025-029G","EPOCH":"2026-02-18T04:10:04.137600","MEAN_MOTION":15.30195822,"ECCENTRICITY":0.00010038,"INCLINATION":53.1591,"RA_OF_ASC_NODE":320.6906,"ARG_OF_PERICENTER":99.6272,"MEAN_ANOMALY":260.4842,"EPHEMERIS_TYPE":0,"CLASSIFICATION_TYPE":"U","NORAD_CAT_ID":62954,"ELEMENT_SET_NO":999,"REV_AT_EPOCH":5837,"BSTAR":0.0013478164,"MEAN_MOTION_DOT":0.00039768,"MEAN_MOTION_DDOT":0},{"OBJECT_NAME":"STARLINK-32880","OBJECT_ID":"2025-029H","EPOCH":"2026-02-18T04:39:42.271200","MEAN_MOTION":15.3020178,"ECCENTRICITY":0.0001549,"INCLINATION":53.1584,"RA_OF_ASC_NODE":322.9473,"ARG_OF_PERICENTER":46.0481,"MEAN_ANOMALY":314.0647,"EPHEMERIS_TYPE":0,"CLASSIFICATION_TYPE":"U","NORAD_CAT_ID":62955,"ELEMENT_SET_NO":999,"REV_AT_EPOCH":5834,"BSTAR":0.000866,"MEAN_MOTION_DOT":0.00025378,"MEAN_MOTION_DDOT":0},{"OBJECT_NAME":"STARLINK-32815","OBJECT_ID":"2025-029J","EPOCH":"2026-02-18T04:26:47.194080","MEAN_MOTION":15.30191099,"ECCENTRICITY":0.0001036,"INCLINATION":53.1584,"RA_OF_ASC_NODE":320.7678,"ARG_OF_PERICENTER":67.0007,"MEAN_ANOMALY":293.1103,"EPHEMERIS_TYPE":0,"CLASSIFICATION_TYPE":"U","NORAD_CAT_ID":62956,"ELEMENT_SET_NO":999,"REV_AT_EPOCH":5837,"BSTAR":0.00075398,"MEAN_MOTION_DOT":0.00022032,"MEAN_MOTION_DDOT":0},{"OBJECT_NAME":"STARLINK-32879","OBJECT_ID":"2025-029K","EPOCH":"2026-02-18T00:32:29.808672","MEAN_MOTION":15.302043,"ECCENTRICITY":0.00011923,"INCLINATION":53.1613,"RA_OF_ASC_NODE":324.0142,"ARG_OF_PERICENTER":73.4064,"MEAN_ANOMALY":286.7067,"EPHEMERIS_TYPE":0,"CLASSIFICATION_TYPE":"U","NORAD_CAT_ID":62957,"ELEMENT_SET_NO":999,"REV_AT_EPOCH":5830,"BSTAR":0.00091370955,"MEAN_MOTION_DOT":0.00026803,"MEAN_MOTION_DDOT":0},{"OBJECT_NAME":"STARLINK-32885","OBJECT_ID":"2025-029L","EPOCH":"2026-02-18T06:02:21.446304","MEAN_MOTION":15.30199908,"ECCENTRICITY":0.0001236,"INCLINATION":53.1595,"RA_OF_ASC_NODE":320.4662,"ARG_OF_PERICENTER":75.5134,"MEAN_ANOMALY":284.6004,"EPHEMERIS_TYPE":0,"CLASSIFICATION_TYPE":"U","NORAD_CAT_ID":62958,"ELEMENT_SET_NO":999,"REV_AT_EPOCH":5837,"BSTAR":0.0012678,"MEAN_MOTION_DOT":0.00037378,"MEAN_MOTION_DDOT":0},{"OBJECT_NAME":"STARLINK-32896","OBJECT_ID":"2025-029M","EPOCH":"2026-02-18T03:58:50.288448","MEAN_MOTION":15.30197987,"ECCENTRICITY":0.0001385,"INCLINATION":53.1601,"RA_OF_ASC_NODE":323.4836,"ARG_OF_PERICENTER":82.2452,"MEAN_ANOMALY":277.8706,"EPHEMERIS_TYPE":0,"CLASSIFICATION_TYPE":"U","NORAD_CAT_ID":62959,"ELEMENT_SET_NO":999,"REV_AT_EPOCH":5832,"BSTAR":0.00097295259,"MEAN_MOTION_DOT":0.00028566,"MEAN_MOTION_DDOT":0},{"OBJECT_NAME":"STARLINK-32877","OBJECT_ID":"2025-029N","EPOCH":"2026-02-17T18:25:23.249280","MEAN_MOTION":15.3023539,"ECCENTRICITY":0.00014487,"INCLINATION":53.1602,"RA_OF_ASC_NODE":325.2629,"ARG_OF_PERICENTER":58.1303,"MEAN_ANOMALY":301.9839,"EPHEMERIS_TYPE":0,"CLASSIFICATION_TYPE":"U","NORAD_CAT_ID":62960,"ELEMENT_SET_NO":999,"REV_AT_EPOCH":5824,"BSTAR":0.0008713336,"MEAN_MOTION_DOT":0.00025564,"MEAN_MOTION_DDOT":0},{"OBJECT_NAME":"STARLINK-32889","OBJECT_ID":"2025-029P","EPOCH":"2026-02-17T04:23:28.824000","MEAN_MOTION":15.30208559,"ECCENTRICITY":0.00011343,"INCLINATION":53.1596,"RA_OF_ASC_NODE":328.0191,"ARG_OF_PERICENTER":44.7014,"MEAN_ANOMALY":315.4078,"EPHEMERIS_TYPE":0,"CLASSIFICATION_TYPE":"U","NORAD_CAT_ID":62961,"ELEMENT_SET_NO":999,"REV_AT_EPOCH":5817,"BSTAR":0.00076168663,"MEAN_MOTION_DOT":0.00022273,"MEAN_MOTION_DDOT":0},{"OBJECT_NAME":"STARLINK-32858","OBJECT_ID":"2025-029Q","EPOCH":"2026-02-18T04:03:13.765248","MEAN_MOTION":15.3017748,"ECCENTRICITY":0.00010855,"INCLINATION":53.1593,"RA_OF_ASC_NODE":322.7935,"ARG_OF_PERICENTER":60.1813,"MEAN_ANOMALY":299.9296,"EPHEMERIS_TYPE":0,"CLASSIFICATION_TYPE":"U","NORAD_CAT_ID":62962,"ELEMENT_SET_NO":999,"REV_AT_EPOCH":5831,"BSTAR":0.0012424341,"MEAN_MOTION_DOT":0.00036594,"MEAN_MOTION_DDOT":0},{"OBJECT_NAME":"STARLINK-32882","OBJECT_ID":"2025-029R","EPOCH":"2026-02-18T04:31:20.849664","MEAN_MOTION":15.30206708,"ECCENTRICITY":0.0001562,"INCLINATION":53.1581,"RA_OF_ASC_NODE":320.7891,"ARG_OF_PERICENTER":32.2959,"MEAN_ANOMALY":327.8137,"EPHEMERIS_TYPE":0,"CLASSIFICATION_TYPE":"U","NORAD_CAT_ID":62963,"ELEMENT_SET_NO":999,"REV_AT_EPOCH":5836,"BSTAR":0.00084742,"MEAN_MOTION_DOT":0.00024828,"MEAN_MOTION_DDOT":0},{"OBJECT_NAME":"STARLINK-32887","OBJECT_ID":"2025-029S","EPOCH":"2026-02-18T04:23:44.745792","MEAN_MOTION":15.30214834,"ECCENTRICITY":0.000151,"INCLINATION":53.1588,"RA_OF_ASC_NODE":320.7584,"ARG_OF_PERICENTER":50.5062,"MEAN_ANOMALY":309.6072,"EPHEMERIS_TYPE":0,"CLASSIFICATION_TYPE":"U","NORAD_CAT_ID":62964,"ELEMENT_SET_NO":999,"REV_AT_EPOCH":5836,"BSTAR":0.00095952,"MEAN_MOTION_DOT":0.0002818,"MEAN_MOTION_DDOT":0},{"OBJECT_NAME":"STARLINK-32836","OBJECT_ID":"2025-029T","EPOCH":"2026-02-17T23:35:28.920768","MEAN_MOTION":15.30155684,"ECCENTRICITY":0.0001008,"INCLINATION":53.1591,"RA_OF_ASC_NODE":321.6338,"ARG_OF_PERICENTER":84.0352,"MEAN_ANOMALY":276.0764,"EPHEMERIS_TYPE":0,"CLASSIFICATION_TYPE":"U","NORAD_CAT_ID":62965,"ELEMENT_SET_NO":999,"REV_AT_EPOCH":5833,"BSTAR":-0.00011506,"MEAN_MOTION_DOT":-3.76e-5,"MEAN_MOTION_DDOT":0}]
